CCSDS_OMM_VERS = 2.0
CREATION_DATE  = 
ORIGINATOR     = 

OBJECT_NAME    = RASSVET-3 8
OBJECT_ID      = 2026-061H
CENTER_NAME    = EARTH
REF_FRAME      = TEME
TIME_SYSTEM    = UTC
MEAN_ELEMENT_THEORY = SGP/SGP4

EPOCH          = 2026-04-05T06:06:37.110816
MEAN_MOTION    = 15.89272144
ECCENTRICITY   = .00257397
INCLINATION    = 82.2973
RA_OF_ASC_NODE = 94.5084
ARG_OF_PERICENTER = 27.8505
MEAN_ANOMALY   = 332.4138

EPHEMERIS_TYPE = 0
CLASSIFICATION_TYPE = U
NORAD_CAT_ID   = 68367
ELEMENT_SET_NO = 999
REV_AT_EPOCH   = 199
BSTAR          = .23973084E-3
MEAN_MOTION_DOT = .71082E-3
MEAN_MOTION_DDOT = .617955E-6

CCSDS_OMM_VERS = 2.0
CREATION_DATE  = 
ORIGINATOR     = 

OBJECT_NAME    = RASSVET-3 9
OBJECT_ID      = 2026-061J
CENTER_NAME    = EARTH
REF_FRAME      = TEME
TIME_SYSTEM    = UTC
MEAN_ELEMENT_THEORY = SGP/SGP4

EPOCH          = 2026-04-05T06:04:05.719008
MEAN_MOTION    = 15.90094294
ECCENTRICITY   = .00247583
INCLINATION    = 82.2963
RA_OF_ASC_NODE = 94.5052
ARG_OF_PERICENTER = 28.2715
MEAN_ANOMALY   = 331.9894

EPHEMERIS_TYPE = 0
CLASSIFICATION_TYPE = U
NORAD_CAT_ID   = 68368
ELEMENT_SET_NO = 999
REV_AT_EPOCH   = 199
BSTAR          = .43600596E-3
MEAN_MOTION_DOT = .134176E-2
MEAN_MOTION_DDOT = .5199706E-5

CCSDS_OMM_VERS = 2.0
CREATION_DATE  = 
ORIGINATOR     = 

OBJECT_NAME    = RASSVET-3 10
OBJECT_ID      = 2026-061K
CENTER_NAME    = EARTH
REF_FRAME      = TEME
TIME_SYSTEM    = UTC
MEAN_ELEMENT_THEORY = SGP/SGP4

EPOCH          = 2026-04-05T06:06:05.886720
MEAN_MOTION    = 15.89320901
ECCENTRICITY   = .00255592
INCLINATION    = 82.2973
RA_OF_ASC_NODE = 94.5080
ARG_OF_PERICENTER = 27.9247
MEAN_ANOMALY   = 332.3389

EPHEMERIS_TYPE = 0
CLASSIFICATION_TYPE = U
NORAD_CAT_ID   = 68369
ELEMENT_SET_NO = 999
REV_AT_EPOCH   = 199
BSTAR          = .23308001E-3
MEAN_MOTION_DOT = .69262E-3
MEAN_MOTION_DDOT = .530571E-6

CCSDS_OMM_VERS = 2.0
CREATION_DATE  = 
ORIGINATOR     = 

OBJECT_NAME    = RASSVET-3 11
OBJECT_ID      = 2026-061L
CENTER_NAME    = EARTH
REF_FRAME      = TEME
TIME_SYSTEM    = UTC
MEAN_ELEMENT_THEORY = SGP/SGP4

EPOCH          = 2026-04-05T06:05:35.982816
MEAN_MOTION    = 15.89357937
ECCENTRICITY   = .00253554
INCLINATION    = 82.2973
RA_OF_ASC_NODE = 94.5072
ARG_OF_PERICENTER = 27.8237
MEAN_ANOMALY   = 332.4384

EPHEMERIS_TYPE = 0
CLASSIFICATION_TYPE = U
NORAD_CAT_ID   = 68370
ELEMENT_SET_NO = 999
REV_AT_EPOCH   = 199
BSTAR          = .23083087E-3
MEAN_MOTION_DOT = .68694E-3
MEAN_MOTION_DDOT = .5042E-6

CCSDS_OMM_VERS = 2.0
CREATION_DATE  = 
ORIGINATOR     = 

OBJECT_NAME    = RASSVET-3 12
OBJECT_ID      = 2026-061M
CENTER_NAME    = EARTH
REF_FRAME      = TEME
TIME_SYSTEM    = UTC
MEAN_ELEMENT_THEORY = SGP/SGP4

EPOCH          = 2026-04-05T06:05:09.117600
MEAN_MOTION    = 15.89423256
ECCENTRICITY   = .00252903
INCLINATION    = 82.2973
RA_OF_ASC_NODE = 94.5069
ARG_OF_PERICENTER = 27.8080
MEAN_ANOMALY   = 332.4537

EPHEMERIS_TYPE = 0
CLASSIFICATION_TYPE = U
NORAD_CAT_ID   = 68371
ELEMENT_SET_NO = 999
REV_AT_EPOCH   = 199
BSTAR          = .23956788E-3
MEAN_MOTION_DOT = .71505E-3
MEAN_MOTION_DDOT = .641587E-6

CCSDS_OMM_VERS = 2.0
CREATION_DATE  = 
ORIGINATOR     = 

OBJECT_NAME    = RASSVET-3 13
OBJECT_ID      = 2026-061N
CENTER_NAME    = EARTH
REF_FRAME      = TEME
TIME_SYSTEM    = UTC
MEAN_ELEMENT_THEORY = SGP/SGP4

EPOCH          = 2026-04-05T06:04:54.456384
MEAN_MOTION    = 15.89422040
ECCENTRICITY   = .00250927
INCLINATION    = 82.2973
RA_OF_ASC_NODE = 94.5065
ARG_OF_PERICENTER = 27.6578
MEAN_ANOMALY   = 332.6021

EPHEMERIS_TYPE = 0
CLASSIFICATION_TYPE = U
NORAD_CAT_ID   = 68372
ELEMENT_SET_NO = 999
REV_AT_EPOCH   = 199
BSTAR          = .23081385E-3
MEAN_MOTION_DOT = .6887E-3
MEAN_MOTION_DDOT = .513784E-6

CCSDS_OMM_VERS = 2.0
CREATION_DATE  = 
ORIGINATOR     = 

OBJECT_NAME    = RASSVET-3 14
OBJECT_ID      = 2026-061P
CENTER_NAME    = EARTH
REF_FRAME      = TEME
TIME_SYSTEM    = UTC
MEAN_ELEMENT_THEORY = SGP/SGP4

EPOCH          = 2026-04-05T06:04:12.355392
MEAN_MOTION    = 15.89502980
ECCENTRICITY   = .00250605
INCLINATION    = 82.2973
RA_OF_ASC_NODE = 94.5060
ARG_OF_PERICENTER = 27.4198
MEAN_ANOMALY   = 332.8389

EPHEMERIS_TYPE = 0
CLASSIFICATION_TYPE = U
NORAD_CAT_ID   = 68373
ELEMENT_SET_NO = 999
REV_AT_EPOCH   = 199
BSTAR          = .2391803E-3
MEAN_MOTION_DOT = .71641E-3
MEAN_MOTION_DDOT = .649927E-6

CCSDS_OMM_VERS = 2.0
CREATION_DATE  = 
ORIGINATOR     = 

OBJECT_NAME    = RASSVET-3 15
OBJECT_ID      = 2026-061Q
CENTER_NAME    = EARTH
REF_FRAME      = TEME
TIME_SYSTEM    = UTC
MEAN_ELEMENT_THEORY = SGP/SGP4

EPOCH          = 2026-04-05T06:04:05.444256
MEAN_MOTION    = 15.89510999
ECCENTRICITY   = .00248659
INCLINATION    = 82.2972
RA_OF_ASC_NODE = 94.5057
ARG_OF_PERICENTER = 27.4837
MEAN_ANOMALY   = 332.7743

EPHEMERIS_TYPE = 0
CLASSIFICATION_TYPE = U
NORAD_CAT_ID   = 68374
ELEMENT_SET_NO = 999
REV_AT_EPOCH   = 199
BSTAR          = .23320029E-3
MEAN_MOTION_DOT = .69857E-3
MEAN_MOTION_DDOT = .562709E-6

CCSDS_OMM_VERS = 2.0
CREATION_DATE  = 
ORIGINATOR     = 

OBJECT_NAME    = RASSVET-3 16
OBJECT_ID      = 2026-061R
CENTER_NAME    = EARTH
REF_FRAME      = TEME
TIME_SYSTEM    = UTC
MEAN_ELEMENT_THEORY = SGP/SGP4

EPOCH          = 2026-04-04T20:56:45.089376
MEAN_MOTION    = 15.90304258
ECCENTRICITY   = .0024024
INCLINATION    = 82.2959
RA_OF_ASC_NODE = 94.9290
ARG_OF_PERICENTER = 30.3095
MEAN_ANOMALY   = 329.9560

EPHEMERIS_TYPE = 0
CLASSIFICATION_TYPE = U
NORAD_CAT_ID   = 68375
ELEMENT_SET_NO = 999
REV_AT_EPOCH   = 193
BSTAR          = .27821581E-3
MEAN_MOTION_DOT = .86531E-3
MEAN_MOTION_DDOT = .1489387E-5

CCSDS_OMM_VERS = 2.0
CREATION_DATE  = 
ORIGINATOR     = 

OBJECT_NAME    = SUPERVIEW NEO-2 OBJECT A
OBJECT_ID      = 2026-062A
CENTER_NAME    = EARTH
REF_FRAME      = TEME
TIME_SYSTEM    = UTC
MEAN_ELEMENT_THEORY = SGP/SGP4

EPOCH          = 2026-04-05T06:17:57.914304
MEAN_MOTION    = 15.20628845
ECCENTRICITY   = .00065848
INCLINATION    = 97.4369
RA_OF_ASC_NODE = 103.6069
ARG_OF_PERICENTER = 226.0896
MEAN_ANOMALY   = 133.9797

EPHEMERIS_TYPE = 0
CLASSIFICATION_TYPE = U
NORAD_CAT_ID   = 68377
ELEMENT_SET_NO = 999
REV_AT_EPOCH   = 157
BSTAR          = .19171113E-3
MEAN_MOTION_DOT = .4138E-4
MEAN_MOTION_DDOT = 0

CCSDS_OMM_VERS = 2.0
CREATION_DATE  = 
ORIGINATOR     = 

OBJECT_NAME    = SUPERVIEW NEO-2 OBJECT B
OBJECT_ID      = 2026-062B
CENTER_NAME    = EARTH
REF_FRAME      = TEME
TIME_SYSTEM    = UTC
MEAN_ELEMENT_THEORY = SGP/SGP4

EPOCH          = 2026-03-31T17:19:08.069952
MEAN_MOTION    = 15.20585060
ECCENTRICITY   = .00089524
INCLINATION    = 97.4347
RA_OF_ASC_NODE = 99.1253
ARG_OF_PERICENTER = 250.4427
MEAN_ANOMALY   = 109.5842

EPHEMERIS_TYPE = 0
CLASSIFICATION_TYPE = U
NORAD_CAT_ID   = 68378
ELEMENT_SET_NO = 999
REV_AT_EPOCH   = 88
BSTAR          = .19790811E-3
MEAN_MOTION_DOT = .427E-4
MEAN_MOTION_DDOT = 0

CCSDS_OMM_VERS = 2.0
CREATION_DATE  = 
ORIGINATOR     = 

OBJECT_NAME    = CZ-2D R/B
OBJECT_ID      = 2026-062C
CENTER_NAME    = EARTH
REF_FRAME      = TEME
TIME_SYSTEM    = UTC
MEAN_ELEMENT_THEORY = SGP/SGP4

EPOCH          = 2026-04-05T06:09:22.197888
MEAN_MOTION    = 15.31241968
ECCENTRICITY   = .00525443
INCLINATION    = 97.4983
RA_OF_ASC_NODE = 103.6450
ARG_OF_PERICENTER = 25.8443
MEAN_ANOMALY   = 334.5405

EPHEMERIS_TYPE = 0
CLASSIFICATION_TYPE = U
NORAD_CAT_ID   = 68379
ELEMENT_SET_NO = 999
REV_AT_EPOCH   = 158
BSTAR          = .39976613E-3
MEAN_MOTION_DOT = .12516E-3
MEAN_MOTION_DDOT = 0

