RASSVET-3 8             
1 68367U 26061H   26095.25459619  .00071082  61795-6  23973-3 0  9997
2 68367  82.2973  94.5084 0025739  27.8505 332.4138 15.89272144  1992
RASSVET-3 9             
1 68368U 26061J   26095.25284397  .00134176  51997-5  43601-3 0  9993
2 68368  82.2963  94.5052 0024758  28.2715 331.9894 15.90094294  1998
RASSVET-3 10            
1 68369U 26061K   26095.25423480  .00069262  53057-6  23308-3 0  9997
2 68369  82.2973  94.5080 0025559  27.9247 332.3389 15.89320901  1996
RASSVET-3 11            
1 68370U 26061L   26095.25388869  .00068694  50420-6  23083-3 0  9999
2 68370  82.2973  94.5072 0025355  27.8237 332.4384 15.89357937  1996
RASSVET-3 12            
1 68371U 26061M   26095.25357775  .00071505  64159-6  23957-3 0  9991
2 68371  82.2973  94.5069 0025290  27.8080 332.4537 15.89423256  1995
RASSVET-3 13            
1 68372U 26061N   26095.25340806  .00068870  51378-6  23081-3 0  9997
2 68372  82.2973  94.5065 0025092  27.6578 332.6021 15.89422040  1992
RASSVET-3 14            
1 68373U 26061P   26095.25292078  .00071641  64993-6  23918-3 0  9991
2 68373  82.2973  94.5060 0025060  27.4198 332.8389 15.89502980  1990
RASSVET-3 15            
1 68374U 26061Q   26095.25284079  .00069857  56271-6  23320-3 0  9997
2 68374  82.2972  94.5057 0024865  27.4837 332.7743 15.89510999  1990
RASSVET-3 16            
1 68375U 26061R   26094.87274409  .00086531  14894-5  27822-3 0  9994
2 68375  82.2959  94.9290 0024024  30.3095 329.9560 15.90304258  1935
SUPERVIEW NEO-2 OBJECT A
1 68377U 26062A   26095.26247586  .00004138  00000+0  19171-3 0  9996
2 68377  97.4369 103.6069 0006584 226.0896 133.9797 15.20628845  1575
SUPERVIEW NEO-2 OBJECT B
1 68378U 26062B   26090.72162118  .00004270  00000+0  19791-3 0  9995
2 68378  97.4347  99.1253 0008952 250.4427 109.5842 15.20585060   882
CZ-2D R/B               
1 68379U 26062C   26095.25650692  .00012516  00000+0  39977-3 0  9998
2 68379  97.4983 103.6450 0052544  25.8443 334.5405 15.31241968  1588
